NAVSTAR 77 (USA 289)    
1 43873U 18109A   23300.66791103  .00000077  00000+0  00000+0 0  9997
2 43873  55.2120 130.2572 0026833 189.7793 105.8275  2.00570496 35748
